RASSVET 1-6
1 59781U 24092J   26008.33437123  .00000304  00000-0  13029-3 0  9994
2 59781  98.6526 127.7302 0011442 323.9500  36.0911 14.31760059 86026
SITRO-AIS-55
1 59809U 24092K   26008.29753433  .00021305  00000-0  73374-3 0  9998
2 59809  97.6374 135.6302 0008792   2.7146 357.4140 15.30024506 90734
MESAT-1
1 60209U 24125G   26008.11188631  .00030845  00000-0  58234-3 0  9991
2 60209  97.2499 223.5354 0015758  86.0907 274.2145 15.48263056 84680
ISTSAT-1
1 60238U 24128D   26008.30955833  .00007198  00000-0  45138-3 0  9997
2 60238  61.9893  50.4141 0053002  99.9779 260.7303 15.09036442 82311
IONOSFERA-M 01
1 61735U 24199A   26008.27091388  .00000058  00000-0  45561-4 0  9999
2 61735  98.7395 242.9133 0000388 162.0816 198.0375 14.22721095104968
IONOSFERA-M 02
1 61736U 24199B   26008.30552008  .00000087  00000-0  58405-4 0  9998
2 61736  98.7387 242.8598 0001867  76.3483 283.7902 14.22723498108099
SITRO-AIS-16
1 61737U 24199C   26008.28493723  .00003082  00000-0  27555-3 0  9993
2 61737  97.3331 217.5502 0005370 244.5978 115.4689 14.96555573107897
SITRO-AIS-15
1 61738U 24199D   26008.27127811  .00003888  00000-0  34607-3 0  9995
2 61738  97.3340 217.5692 0004794 242.3503 117.7233 14.96584782107891
SITRO-AIS-21
1 61739U 24199E   26008.28752993  .00001258  00000-0  12140-3 0  9999
2 61739  97.3337 216.5287 0011575 238.6933 121.3156 14.94448797107862
SITRO-AIS-22
1 61740U 24199F   26008.32115150  .00004486  00000-0  41534-3 0  9999
2 61740  97.3337 216.6421 0011249 238.6330 121.3792 14.94924370108025
SITRO-AIS-24
1 61741U 24199G   26008.32754395  .00005002  00000-0  46131-3 0  9993
2 61741  97.3343 216.6409 0011049 240.4760 119.5361 14.95031765107999
SITRO-AIS-23
1 61742U 24199H   26008.31148630  .00003985  00000-0  36925-3 0  9990
2 61742  97.3334 216.6560 0011219 239.8722 120.1389 14.94950072107872
SITRO-AIS-13
1 61743U 24199J   26008.28708218  .00003182  00000-0  28245-3 0  9996
2 61743  97.3329 217.6922 0005009 246.4746 113.5951 14.96815371108067
CSTP-2.11
1 61744U 24199K   26008.32505296  .00025218  00000-0  57595-3 0  9997
2 61744  97.3227 241.8967 0011064 128.5147 231.7094 15.42785898109644
POLYTECH UNIVERSE-5 (RS70S)
1 61745U 24199L   26008.32234450  .00038566  00000-0  76061-3 0  9998
2 61745  97.3204 242.8108 0008490 128.1327 232.0689 15.47055327112856
COLIBRI-S (RS67S)
1 61746U 24199M   26008.26698443  .00021327  00000-0  52603-3 0  9991
2 61746  97.3235 241.2240 0011063 131.5341 228.6857 15.40499223112730
POLYTECH UNIVERSE-4 (RS71S)
1 61747U 24199N   26008.27825450  .00019249  00000-0  49418-3 0  9993
2 61747  97.3237 240.9073 0011495 130.6873 229.5373 15.39291418112717
SITRO-AIS-44
1 61748U 24199P   26008.32546171  .00043895  00000-0  79709-3 0  9990
2 61748  97.3186 243.3681 0008146 125.3988 234.8025 15.49410437112897
VIZARD-ION (RS68S)
1 61749U 24199Q   26008.26697374  .00025332  00000-0  54858-3 0  9990
2 61749  97.3230 242.2874 0010446 126.1822 234.0394 15.44376687112807
MTUSI-1
1 61750U 24199R   26008.32308425  .00031619  00000-0  69142-3 0  9992
2 61750  97.3196 241.8935 0010087 135.2846 224.9217 15.44048491112790
VLADIVOSTOK-1
1 61751U 24199S   26008.27609531  .00010733  00000-0  33326-3 0  9998
2 61751  97.3225 239.0015 0010782 150.4806 209.7048 15.33493143112608
SITRO-AIS-14
1 61752U 24199T   26008.32396816  .00004487  00000-0  39815-3 0  9992
2 61752  97.3331 217.6477 0004725 240.7677 119.3073 14.96635107111205
HORS-3 (RS81S)
1 61753U 24199U   26008.26686384  .00030115  00000-0  65492-3 0  9995
2 61753  97.3205 241.9620 0009285 133.8595 226.3422 15.44229832112793
HORS-4 (RS82S)
1 61754U 24199V   26008.29924819  .00034658  00000-0  70270-3 0  9993
2 61754  97.3184 242.4904 0009289 131.5567 228.6481 15.46264069112837
SITRO-AIS-43
1 61755U 24199W   26008.30387131  .00044795  00000-0  80821-3 0  9992
2 61755  97.3179 243.3964 0008256 123.9355 236.2682 15.49589178112899
SITRO-AIS-42
1 61756U 24199X   26008.28981462  .00039318  00000-0  70706-3 0  9993
2 61756  97.3187 243.4204 0008035 125.0264 235.1743 15.49712819112890
HORIZON (RS59S)
1 61757U 24199Y   26008.31604235  .00081444  00000-0  10987-2 0  9999
2 61757  97.3184 245.0161 0008912 111.8750 248.3454 15.57483654112992
SITRO-AIS-20
1 61758U 24199Z   26008.26667818  .00003760  00000-0  33224-3 0  9995
2 61758  97.3337 217.7058 0004334 244.6555 115.4219 14.96889487111208
SITRO-AIS-19
1 61759U 24199AA  26008.26762838  .00004185  00000-0  36942-3 0  9996
2 61759  97.3337 217.7067 0004266 247.1318 112.9454 14.96870849111203
SITRO-AIS-41
1 61760U 24199AB  26008.30411744  .00038383  00000-0  70545-3 0  9994
2 61760  97.3187 243.2712 0008317 124.6982 235.5054 15.49092682112889
2024-199AC
1 61761U 24199AC  26008.28010777  .00032400  00000-0  67930-3 0  9991
2 61761  97.3186 242.3671 0008292 129.3220 230.8766 15.45304536112824
ARCTICSAT-1 (RS74S)
1 61762U 24199AD  26008.27723216  .00066512  00000-0  96834-3 0  9996
2 61762  97.3196 244.7632 0008975 110.5169 249.7049 15.55475186112971
SIT-HSE
1 61763U 24199AE  26008.28487505  .00020495  00000-0  44616-3 0  9997
2 61763  97.3210 242.7096 0006929 146.2393 213.9298 15.44295992112841
SIT-2086
1 61764U 24199AF  26008.26710691  .00022589  00000-0  48966-3 0  9999
2 61764  97.3201 242.7223 0009117 123.7562 236.4556 15.44383898109682
MORDOVIA-IOT (RS50S)
1 61765U 24199AG  26008.34328337  .00318022  00000-0  15694-2 0  9992
2 61765  97.3045 248.3304 0007584  95.4725 264.7409 15.81227941110076
RUZAEVKA-390 (RS44S)
1 61766U 24199AH  26008.29258646  .00147058  00000-0  12993-2 0  9990
2 61766  97.3122 246.9017 0007710 100.4200 259.7930 15.68172647109971
2024-199AJ (? AHMAT-2)
1 61767U 24199AJ  25363.38690139  .10165052  24539-5  11813-2 0  9994
2 61767  97.2732 240.1382 0004854  95.9620 264.2231 16.36835873108662
HOD-HOD
1 61768U 24199AK  26008.29071934  .00020628  00000-0  48138-3 0  9999
2 61768  97.3206 241.8145 0007333 136.4071 223.7757 15.42215803109633
KOSAR
1 61769U 24199AL  26008.26262781  .00027629  00000-0  60452-3 0  9990
2 61769  97.3201 242.2813 0007140 134.3661 225.8173 15.44084893109667
SITRO-AIS-48
1 61771U 24199AN  26008.26715701  .00034594  00000-0  73129-3 0  9992
2 61771  97.3170 241.6646 0010351 143.4931 216.7025 15.45028219109634
HYPERVIEW-1G (RS66S)
1 61772U 24199AP  26008.29254840  .00050072  00000-0  87347-3 0  9994
2 61772  97.3181 243.1047 0010742 131.8612 228.3558 15.50496165109725
SITRO-AIS-47
1 61773U 24199AQ  26008.29367278  .00035718  00000-0  74647-3 0  9994
2 61773  97.3173 241.7911 0010270 143.6584 216.5364 15.45359565109647
SITRO-AIS-46
1 61774U 24199AR  26008.27344087  .00036888  00000-0  75201-3 0  9992
2 61774  97.3166 241.9462 0010170 143.3326 216.8621 15.46081850109653
CSTP-2.2
1 61775U 24199AS  26008.29438509  .00016910  00000-0  43941-3 0  9998
2 61775  97.3222 240.3316 0017876 132.8279 227.4472 15.38850235109539
SITRO-AIS-40
1 61776U 24199AT  26008.27061946  .00032238  00000-0  65572-3 0  9999
2 61776  97.3165 241.9537 0010256 143.1869 217.0087 15.46175084112805
CSTP-2.1
1 61777U 24199AU  26008.27794332  .00015564  00000-0  39984-3 0  9993
2 61777  97.3222 240.3461 0016916 133.6540 226.6112 15.39235917109533
SITRO-AIS-39
1 61778U 24199AV  26008.30567339  .00036028  00000-0  76546-3 0  9996
2 61778  97.3171 241.6153 0010501 144.7184 215.4762 15.44869329109634
ALTAIR (RS65S)
1 61779U 24199AW  26008.30526888  .00010247  00000-0  31864-3 0  9990
2 61779  97.3243 238.8524 0014529 153.0392 207.1608 15.33411098112582
SITRO-AIS-37
1 61780U 24199AX  26008.25890980  .00036184  00000-0  75612-3 0  9990
2 61780  97.3179 241.7248 0010636 144.8519 215.3434 15.45355532109635
ASRTU-1 (RS64S/BJ2CR/AO-123)
1 61781U 24199AY  26008.31720628  .00012026  00000-0  38261-3 0  9997
2 61781  97.3226 238.4854 0014903 154.5011 205.6969 15.32632301109410
TUSUR GO (RS78S)
1 61782U 24199AZ  26008.32663376  .00084208  00000-0  11551-2 0  9998
2 61782  97.3141 244.0799 0009735 125.0848 235.1322 15.57016234109796
ZIMSAT-2 (Z2AS)
1 61783U 24199BA  26008.31254987  .00759341  24381-3  21459-2 0  9998
2 61783  97.2970 247.9085 0008217 107.0237 253.1939 15.93410440113204
SAMSAT-IONOSPHERE (RS75S)
1 61784U 24199BB  26008.32372205  .00034849  00000-0  74205-3 0  9990
2 61784  97.3198 241.7434 0012206 139.4402 220.7758 15.44789618112787
RTU MIREA-1 (RS51S)
1 61785U 24199BC  26008.31956465  .00039290  00000-0  79880-3 0  9995
2 61785  97.3194 242.0411 0011840 136.7223 223.4958 15.46128091109655
SITRO-AIS-38
1 61786U 24199BD  26008.32199214  .00020250  00000-0  47213-3 0  9999
2 61786  97.3184 241.4743 0011852 148.8867 211.3084 15.42201858109629
2024-199BE (? SWSU-60)
1 61787U 24199BE  26008.26951878  .00010968  00000-0  34416-3 0  9991
2 61787  97.3233 238.5771 0014820 153.8742 206.3251 15.33099780112565
SITRO-AIS-45
1 61788U 24199BF  26008.28123227  .00034475  00000-0  72859-3 0  9995
2 61788  97.3168 241.6233 0010465 144.7653 215.4290 15.45035203109611
SITRO-AIS-17
1 61789U 24199BG  26008.32590648  .00004640  00000-0  40884-3 0  9990
2 61789  97.3334 217.8011 0004416 250.8490 109.2255 14.96897540108113
SITRO-AIS-18
1 61790U 24199BH  26008.26788064  .00003576  00000-0  31644-3 0  9997
2 61790  97.3338 217.7093 0004282 249.4666 110.6097 14.96859529108102
INNOCUBE (TUBSAT-31)
1 62616U 25009H   26008.20451794  .00007514  00000-0  31574-3 0  9995
2 62616  97.4053  90.0869 0006513 165.1880 194.9549 15.23699907 54435
HADES-R (SO-124)
1 62690U 25009CK  26008.18564320  .00291040  00000-0  21794-2 0  9995
2 62690  97.3802  97.0351 0003865 307.7216  52.3696 15.71787029 54914
OTP-2
1 63235U 25052AB  26008.21624653  .00003873  00000-0  17539-3 0  9997
2 63235  97.4054 263.1303 0007090  20.0227 340.1286 15.21450064 45525
HADES-ICM (SO-125)
1 63492U 25052BN  26008.25095148  .00088661  00000-0  19585-2 0  9997
2 63492  97.4043 267.1364 0008028   6.3955 353.7393 15.43499159 45785
